{
    "satellites": [
        {
            "name": "starlink346",
            "title": "Starlink-346 (G17-20) (new)",
            "tle": [
                "1 71504C 26016F   26026.10395833  .00533900  00000+0  65266-3 0   268",
                "2 71504  97.2845  83.9927 0009946 266.3988 224.9753 16.07385129    17"
            ],
            "stdMag": 5,
            "noradId": "71504",
            "tleUrl": "http://celestrak.org/NORAD/elements/supplemental/sup-gp.php?FILE=starlink&FORMAT=tle",
            "launchDate": "2026-01-25T17:30:39.000Z",
            "active": true,
            "batch": [
                {
                    "noradId": "71504",
                    "tle": [
                        "1 71504C 26016F   26026.10395833  .00533900  00000+0  65266-3 0   268",
                        "2 71504  97.2845  83.9927 0009946 266.3988 224.9753 16.07385129    17"
                    ]
                },
                {
                    "noradId": "71501",
                    "tle": [
                        "1 71501C 26016C   26026.10743056  .00527070  00000+0  64577-3 0   264",
                        "2 71501  97.2845  83.9965 0009920 267.0859 244.3299 16.07356760    13"
                    ]
                }
            ]
        },
        {
            "name": "starlink345",
            "title": "Starlink-345 (G17-30) (new)",
            "tle": [
                "1 71496C 26014Y   26026.09770833 -.00953040  00000+0 -12667-2 0   260",
                "2 71496  97.2820 268.5986 0001436  94.3079  31.0987 16.07696243    10"
            ],
            "stdMag": 5,
            "noradId": "71496",
            "tleUrl": "http://celestrak.org/NORAD/elements/supplemental/sup-gp.php?FILE=starlink&FORMAT=tle",
            "launchDate": "2026-01-22T05:47:29.000Z",
            "active": true,
            "batch": [
                {
                    "noradId": "71496",
                    "tle": [
                        "1 71496C 26014Y   26026.09770833 -.00953040  00000+0 -12667-2 0   260",
                        "2 71496  97.2820 268.5986 0001436  94.3079  31.0987 16.07696243    10"
                    ]
                },
                {
                    "noradId": "71498",
                    "tle": [
                        "1 71498C 26014AA  26026.09006944 -.00968310  00000+0 -13096-2 0   260",
                        "2 71498  97.2818 268.5892 0001441  94.5445 344.9209 16.07429931    11"
                    ]
                },
                {
                    "noradId": "71497",
                    "tle": [
                        "1 71497C 26014Z   26026.06368056 -.00952410  00000+0 -12706-2 0   262",
                        "2 71497  97.2821 268.5608 0001362  94.9434 192.8645 16.07635183    15"
                    ]
                },
                {
                    "noradId": "71495",
                    "tle": [
                        "1 71495C 26014X   26026.09840278 -.00977160  00000+0 -13324-2 0   260",
                        "2 71495  97.2820 268.5980 0001445  91.4740  35.3902 16.07307378    18"
                    ]
                },
                {
                    "noradId": "71494",
                    "tle": [
                        "1 71494C 26014W   26026.09493056 -.00983510  00000+0 -13536-2 0   268",
                        "2 71494  97.2819 268.5938 0001487  98.9930   6.8836 16.07162353    18"
                    ]
                },
                {
                    "noradId": "71493",
                    "tle": [
                        "1 71493C 26014V   26026.07340278 -.00984030  00000+0 -13607-2 0   269",
                        "2 71493  97.2819 268.5697 0001261 110.3755 230.2537 16.07086423    17"
                    ]
                },
                {
                    "noradId": "71492",
                    "tle": [
                        "1 71492C 26014U   26026.09354167 -.00995870  00000+0 -13903-2 0   265",
                        "2 71492  97.2821 268.5915 0001445 102.7901 353.4757 16.06942273    19"
                    ]
                },
                {
                    "noradId": "71490",
                    "tle": [
                        "1 71490C 26014S   26026.09631944 -.01008000  00000+0 -14306-2 0   263",
                        "2 71490  97.2825 268.5940 0001399  97.4840  13.1787 16.06685672    19"
                    ]
                },
                {
                    "noradId": "71491",
                    "tle": [
                        "1 71491C 26014T   26026.09770833 -.01003300  00000+0 -14127-2 0   264",
                        "2 71491  97.2825 268.5959 0001449 102.6191  16.9040 16.06810903    14"
                    ]
                },
                {
                    "noradId": "71488",
                    "tle": [
                        "1 71488C 26014Q   26026.09284722 -.01020700  00000+0 -14714-2 0   262",
                        "2 71488  97.2822 268.5894 0001461 101.9277 346.9780 16.06443048    15"
                    ]
                },
                {
                    "noradId": "71489",
                    "tle": [
                        "1 71489C 26014R   26026.09284722 -.01015900  00000+0 -14549-2 0   265",
                        "2 71489  97.2822 268.5897 0001433 101.9200 347.7552 16.06546660    14"
                    ]
                },
                {
                    "noradId": "71486",
                    "tle": [
                        "1 71486C 26014N   26026.09215278 -.01032000  00000+0 -15132-2 0   261",
                        "2 71486  97.2824 268.5880 0001403 101.7716 341.3784 16.06174484    10"
                    ]
                },
                {
                    "noradId": "71487",
                    "tle": [
                        "1 71487C 26014P   26026.09840278 -.01029800  00000+0 -14998-2 0   269",
                        "2 71487  97.2824 268.5952 0001478 105.2884  14.7904 16.06282452    18"
                    ]
                },
                {
                    "noradId": "71485",
                    "tle": [
                        "1 71485C 26014M   26026.09145833 -.01038300  00000+0 -15336-2 0   264",
                        "2 71485  97.2827 268.5870 0001448 102.2061 336.1146 16.06060046    11"
                    ]
                },
                {
                    "noradId": "71484",
                    "tle": [
                        "1 71484C 26014L   26026.09006944 -.01044500  00000+0 -15557-2 0   266",
                        "2 71484  97.2828 268.5851 0001390  97.2980 332.1275 16.05927803    10"
                    ]
                },
                {
                    "noradId": "71483",
                    "tle": [
                        "1 71483C 26014K   26026.09006944 -.01048200  00000+0 -15776-2 0   269",
                        "2 71483  97.2828 268.5846 0001414 100.5173 327.9452 16.05759120    16"
                    ]
                },
                {
                    "noradId": "71482",
                    "tle": [
                        "1 71482C 26014J   26026.04701389 -.01051400  00000+0 -15883-2 0   263",
                        "2 71482  97.2827 268.5370 0001498 111.4739  67.3751 16.05699389    14"
                    ]
                },
                {
                    "noradId": "71481",
                    "tle": [
                        "1 71481C 26014H   26026.09145833 -.01061100  00000+0 -16228-2 0   265",
                        "2 71481  97.2829 268.5855 0001439 104.9509 329.8339 16.05504746    10"
                    ]
                },
                {
                    "noradId": "71480",
                    "tle": [
                        "1 71480C 26014G   26026.09284722 -.01064600  00000+0 -16416-2 0   262",
                        "2 71480  97.2829 268.5867 0001405 100.8007 341.1630 16.05372555    15"
                    ]
                },
                {
                    "noradId": "71479",
                    "tle": [
                        "1 71479C 26014F   26026.09631944 -.01068700  00000+0 -16588-2 0   267",
                        "2 71479  97.2830 268.5902 0001456 101.8244 359.4344 16.05266522    15"
                    ]
                },
                {
                    "noradId": "71478",
                    "tle": [
                        "1 71478C 26014E   26026.09284722 -.01072700  00000+0 -16761-2 0   262",
                        "2 71478  97.2832 268.5861 0001391  91.4368 348.9667 16.05159388    11"
                    ]
                },
                {
                    "noradId": "71477",
                    "tle": [
                        "1 71477C 26014D   26026.09770833 -.01079300  00000+0 -17026-2 0   262",
                        "2 71477  97.2833 268.5910 0001437  92.9174  14.6512 16.05005786    16"
                    ]
                },
                {
                    "noradId": "71476",
                    "tle": [
                        "1 71476C 26014C   26026.09840278 -.01086100  00000+0 -17303-2 0   266",
                        "2 71476  97.2833 268.5915 0001451 101.6842   8.9460 16.04847414    15"
                    ]
                },
                {
                    "noradId": "71475",
                    "tle": [
                        "1 71475C 26014B   26026.09423611 -.01089400  00000+0 -17460-2 0   263",
                        "2 71475  97.2833 268.5866 0001493 100.3518 345.4419 16.04749225    15"
                    ]
                },
                {
                    "noradId": "71474",
                    "tle": [
                        "1 71474C 26014A   26026.09770833 -.01090900  00000+0 -17555-2 0   265",
                        "2 71474  97.2834 268.5902 0001426  91.8274  13.3873 16.04683788    11"
                    ]
                }
            ]
        }
    ],
    "config": {}
}